{
    "links": {
        "self": "http://www.neowsapp.com/rest/v1/neo/3734100?api_key=iIulBulltgU6a56xZRHN4H3l9WmuAYTsLGpBGhQ2"
    },
    "id": "3734100",
    "neo_reference_id": "3734100",
    "name": "(2015 VT65)",
    "designation": "2015 VT65",
    "nasa_jpl_url": "http://ssd.jpl.nasa.gov/sbdb.cgi?sstr=3734100",
    "absolute_magnitude_h": 22.9,
    "estimated_diameter": {
        "kilometers": {
            "estimated_diameter_min": 0.0699125232,
            "estimated_diameter_max": 0.1563291544
        },
        "meters": {
            "estimated_diameter_min": 69.9125232246,
            "estimated_diameter_max": 156.3291544087
        },
        "miles": {
            "estimated_diameter_min": 0.0434416145,
            "estimated_diameter_max": 0.097138403
        },
        "feet": {
            "estimated_diameter_min": 229.3718026961,
            "estimated_diameter_max": 512.8909429502
        }
    },
    "is_potentially_hazardous_asteroid": false,
    "close_approach_data": [
        {
            "close_approach_date": "2015-11-09",
            "close_approach_date_full": "2015-Nov-09 08:33",
            "epoch_date_close_approach": 1447057980000,
            "relative_velocity": {
                "kilometers_per_second": "16.9699101729",
                "kilometers_per_hour": "61091.676622471",
                "miles_per_hour": "37959.9920657792"
            },
            "miss_distance": {
                "astronomical": "0.117716404",
                "lunar": "45.791681156",
                "kilometers": "17610123.30245948",
                "miles": "10942423.213241624"
            },
            "orbiting_body": "Earth"
        }
    ],
    "orbital_data": {
        "orbit_id": "16",
        "orbit_determination_date": "2017-04-06 08:30:46",
        "first_observation_date": "2015-11-07",
        "last_observation_date": "2015-11-20",
        "data_arc_in_days": 13,
        "observations_used": 73,
        "orbit_uncertainty": "8",
        "minimum_orbit_intersection": ".107664",
        "jupiter_tisserand_invariant": "3.956",
        "epoch_osculation": "2457338.5",
        "eccentricity": ".3602269077984262",
        "semi_major_axis": "1.716069352539723",
        "inclination": "30.37735348966322",
        "ascending_node_longitude": "45.61859400780838",
        "orbital_period": "821.1087493178466",
        "perihelion_distance": "1.097894996106691",
        "perihelion_argument": "355.7460295594577",
        "aphelion_distance": "2.334243708972754",
        "perihelion_time": "2457333.533979652348",
        "mean_anomaly": "2.177260109138948",
        "mean_motion": ".4384315723088782",
        "equinox": "J2000",
        "orbit_class": {
            "orbit_class_type": "AMO",
            "orbit_class_description": "Near-Earth asteroid orbits similar to that of 1221 Amor",
            "orbit_class_range": "1.017 AU < q (perihelion) < 1.3 AU"
        }
    },
    "is_sentry_object": false
}